      2.10          N: GNSS NAV DATA                        RINEX VERSION / TYPE
fic2rin                                 10/20/2024 00:59:02 PGM / RUN BY / DATE
                                                            END OF HEADER
7  24 10 19  1 59 44.0 -.264849513769D-04  .318323145621D-11  .000000000000D+00
     .400000000000D+01 -.259375000000D+02  .487306012537D-08 -.146991197169D+01
    -.115111470222D-05  .187965919031D-01  .862963497639D-05  .515359450340D+04
     .525584000000D+06  .409781932831D-06  .265546675329D+01  .134110450745D-06
     .950543646987D+00  .200031250000D+03 -.209758567503D+01 -.801140513575D-08
    -.517878714584D-09  .100000000000D+01  .233600000000D+04  .000000000000D+00
     .240000000000D+01  .000000000000D+00 -.107102096081D-07  .400000000000D+01
     .518400000000D+06  .400000000000D+01
12 24 10 19  5 59 44.0 -.546143855900D-03 -.261479726760D-11  .000000000000D+00
     .110000000000D+02  .127593750000D+03  .423339062343D-08 -.895148659335D-01
     .642426311970D-05  .876796431839D-02  .114142894745D-04  .515358927345D+04
     .539984000000D+06 -.163912773132D-06 -.251233766600D+01  .800937414169D-07
     .961857229283D+00  .164625000000D+03  .146590192013D+01 -.800069040373D-08
     .146434671020D-09  .100000000000D+01  .233600000000D+04  .000000000000D+00
     .240000000000D+01  .000000000000D+00 -.125728547573D-07  .110000000000D+02
     .536700000000D+06  .400000000000D+01
2  24 10 19  7 59 44.0 -.333841424435D-03  .829913915368D-11  .000000000000D+00
     .140000000000D+02 -.121593750000D+03  .462590697331D-08 -.164921197621D+01
    -.596232712269D-05  .162656386383D-01  .497885048389D-05  .515368419838D+04
     .547184000000D+06 -.376254320145D-06 -.570973535294D+00  .227242708206D-06
     .966918029068D+00  .289187500000D+03 -.111723223120D+01 -.829141679936D-08
    -.276440086268D-09  .100000000000D+01  .233600000000D+04  .000000000000D+00
     .240000000000D+01  .000000000000D+00 -.176951289177D-07  .140000000000D+02
     .540000000000D+06  .400000000000D+01
3  24 10 19  7 59 44.0  .574801117182D-03  .117097442853D-10  .000000000000D+00
     .370000000000D+02 -.404687500000D+02  .376587114936D-08  .110158551920D+01
    -.216998159885D-05  .569568318315D-02  .124014914036D-04  .515364443398D+04
     .547184000000D+06 -.113621354103D-06  .565741457060D+00  .372529029846D-08
     .986728241032D+00  .154937500000D+03  .116352076154D+01 -.757495838456D-08
     .315013121561D-09  .100000000000D+01  .233600000000D+04  .000000000000D+00
     .240000000000D+01  .000000000000D+00  .139698386192D-08  .370000000000D+02
     .540000000000D+06  .400000000000D+01
12 24 10 19  7 59 44.0 -.546162482351D-03 -.261479726760D-11  .000000000000D+00
     .470000000000D+02  .134750000000D+03  .413802950840D-08  .960772795906D+00
     .690668821335D-05  .876873126253D-02  .115726143122D-04  .515359019279D+04
     .547184000000D+06 -.130385160446D-06 -.251239491730D+01 -.558793544769D-07
     .961857801284D+00  .154750000000D+03  .146584275387D+01 -.800783355841D-08
     .589310261424D-10  .100000000000D+01  .233600000000D+04  .000000000000D+00
     .240000000000D+01  .000000000000D+00 -.125728547573D-07  .470000000000D+02
     .540000000000D+06  .400000000000D+01
11 24 10 19  7 59 44.0 -.745014287531D-03 -.272848410532D-11  .000000000000D+00
     .176000000000D+03 -.155062500000D+03  .451875965305D-08 -.267877558358D+01
    -.792369246483D-05  .172078120522D-02  .541657209396D-05  .515356511497D+04
     .547184000000D+06  .465661287308D-07 -.439632311262D+00 -.558793544769D-07
     .966281750405D+00  .276750000000D+03 -.245222603297D+01 -.825962976102D-08
    -.381444460121D-09  .100000000000D+01  .233600000000D+04  .000000000000D+00
     .240000000000D+01  .000000000000D+00 -.884756445885D-08  .176000000000D+03
     .540000000000D+06  .400000000000D+01
5  24 10 19  8  0  0.0 -.190263148397D-03 -.125055521494D-11  .000000000000D+00
     .540000000000D+02 -.680937500000D+02  .392194907921D-08 -.148318933425D+01
    -.349618494511D-05  .578876084182D-02  .128243118525D-04  .515369411469D+04
     .547200000000D+06  .465661287308D-07  .512538851106D+00  .158324837685D-06
     .973657028495D+00  .138281250000D+03  .133586340709D+01 -.758710174753D-08
     .317156067966D-09  .100000000000D+01  .233600000000D+04  .000000000000D+00
     .240000000000D+01  .000000000000D+00 -.107102096081D-07  .540000000000D+02
     .540000000000D+06  .400000000000D+01
6  24 10 19  8  0  0.0 -.494094565511D-04 -.278532752418D-10  .000000000000D+00
     .460000000000D+02 -.150375000000D+03  .404231123563D-08  .258988071111D+01
    -.759772956371D-05  .315617374144D-02  .564381480217D-05  .515371900940D+04
     .547200000000D+06  .100582838058D-06 -.469464964746D+00  .141561031342D-06
     .989637206819D+00  .284375000000D+03 -.772495261048D+00 -.802211986778D-08
    -.381801617856D-09  .100000000000D+01  .233600000000D+04  .000000000000D+00
     .240000000000D+01  .000000000000D+00  .372529029846D-08  .460000000000D+02
     .540000000000D+06  .400000000000D+01
4  24 10 19  8  0  0.0  .464336946607D-03  .670752342558D-11  .000000000000D+00
     .160000000000D+02  .187500000000D+02  .482877256633D-08 -.210747052765D+01
     .918284058571D-06  .308420939837D-02  .534020364285D-05  .515368496704D+04
     .547200000000D+06 -.167638063431D-07  .164300281352D+01 -.372529029846D-08
     .965500141071D+00  .279218750000D+03 -.300714523169D+01 -.812498129523D-08
     .263225250103D-09  .100000000000D+01  .233600000000D+04  .000000000000D+00
     .240000000000D+01  .000000000000D+00 -.465661287308D-08  .784000000000D+03
     .540000000000D+06  .400000000000D+01
10 24 10 19  8  0  0.0 -.163826625794D-03 -.135287336889D-10  .000000000000D+00
     .260000000000D+02 -.504687500000D+02  .383551690753D-08  .173723455891D+00
    -.256299972534D-05  .980970100500D-02  .114366412163D-04  .515368779373D+04
     .547200000000D+06  .931322574615D-08  .563204757110D+00  .875443220139D-07
     .986366932450D+00  .171750000000D+03 -.237345050717D+01 -.771103548129D-08
     .242867259253D-09  .100000000000D+01  .233600000000D+04  .000000000000D+00
     .240000000000D+01  .000000000000D+00  .232830643654D-08  .260000000000D+02
     .540000000000D+06  .400000000000D+01
7  24 10 19  8  0  0.0 -.264160335064D-04  .318323145621D-11  .000000000000D+00
     .280000000000D+02 -.341875000000D+02  .478984237330D-08  .168306822202D+01
    -.199675559998D-05  .187973445281D-01  .913627445698D-05  .515359791183D+04
     .547200000000D+06 -.359490513802D-06  .265528748878D+01 -.258907675743D-06
     .950528773499D+00  .202812500000D+03 -.209753820188D+01 -.813605318499D-08
    -.671099382554D-09  .100000000000D+01  .233600000000D+04  .000000000000D+00
     .240000000000D+01  .000000000000D+00 -.107102096081D-07  .280000000000D+02
     .540000000000D+06  .400000000000D+01
31 24 10 19  8  0  0.0 -.223164446652D-03  .568434188608D-12  .000000000000D+00
     .120000000000D+02 -.313437500000D+02  .465840832712D-08  .627718168741D+00
    -.135973095894D-05  .106712436536D-01  .886991620064D-05  .515357872200D+04
     .547200000000D+06 -.217929482460D-06  .267741027579D+01  .156462192535D-06
     .954486818321D+00  .207093750000D+03  .754493685428D+00 -.810355183117D-08
    -.686100007391D-09  .100000000000D+01  .233600000000D+04  .000000000000D+00
     .240000000000D+01  .000000000000D+00 -.130385160446D-07  .120000000000D+02
     .540000000000D+06  .400000000000D+01
24 24 10 19  8  0  0.0 -.484255608171D-03  .136424205266D-11  .000000000000D+00
     .700000000000D+01 -.407187500000D+02  .514092842602D-08  .259521966429D+01
    -.225007534027D-05  .161416771589D-01  .777281820774D-05  .515369072914D+04
     .547200000000D+06  .141561031342D-06  .255573955176D+01 -.216066837311D-06
     .934181135023D+00  .212375000000D+03  .102050025202D+01 -.805676416800D-08
    -.607882463602D-09  .100000000000D+01  .233600000000D+04  .000000000000D+00
     .240000000000D+01  .000000000000D+00  .232830643654D-08  .700000000000D+01
     .540000000000D+06  .400000000000D+01
32 24 10 19  8  0  0.0 -.584957189858D-03  .454747350886D-11  .000000000000D+00
     .230000000000D+02  .164375000000D+02  .489734685130D-08 -.109847456831D+01
     .827014446259D-06  .792764511425D-02  .567361712456D-05  .515372984886D+04
     .547200000000D+06  .111758708954D-06  .159753480029D+01  .152736902237D-06
     .962557547185D+00  .273187500000D+03 -.213415157868D+01 -.822355682986D-08
     .228223792151D-09  .100000000000D+01  .233600000000D+04  .000000000000D+00
     .240000000000D+01  .000000000000D+00  .931322574615D-09  .230000000000D+02
     .540000000000D+06  .400000000000D+01
25 24 10 19  8  0  0.0  .499470625073D-03 -.113686837722D-12  .000000000000D+00
     .140000000000D+02  .111937500000D+03  .433339478900D-08  .802144274426D+00
     .576116144657D-05  .119123510085D-01  .124052166939D-04  .515373405647D+04
     .547200000000D+06 -.197440385818D-06 -.260056923386D+01  .167638063431D-07
     .949955732395D+00  .133812500000D+03  .109573890565D+01 -.811426656320D-08
    -.112861844006D-09  .100000000000D+01  .233600000000D+04  .000000000000D+00
     .240000000000D+01  .000000000000D+00  .558793544769D-08  .140000000000D+02
     .540000000000D+06  .400000000000D+01
22 24 10 19  8  0  0.0 -.723204575479D-04 -.329691829393D-11  .000000000000D+00
     .340000000000D+02  .151875000000D+03  .412052877942D-08 -.131681516040D+01
     .787153840065D-05  .139453921001D-01  .112894922495D-04  .515370074081D+04
     .547200000000D+06 -.279396772385D-06 -.249141314787D+01  .800937414169D-07
     .960593200768D+00  .169343750000D+03 -.110177503877D+01 -.799997608826D-08
     .220723479733D-09  .100000000000D+01  .233600000000D+04  .000000000000D+00
     .240000000000D+01  .000000000000D+00 -.111758708954D-07  .340000000000D+02
     .540000000000D+06  .400000000000D+01
